IRIDIUM 126             
1 42809U 17039G   25189.39915515 -.00000029  00000+0 -17308-4 0  9991
2 42809  86.3999 137.3667 0002357  81.7799 278.3664 14.34217374420671
IRIDIUM 124             
1 42810U 17039H   25189.37942678  .00000271  00000+0  74600-4 0  9996
2 42810  86.4470  74.1071 0001982  83.3020 276.8406 14.43279835425529
IRIDIUM 128             
1 42811U 17039J   25189.45966007  .00000023  00000+0  10125-5 0  9996
2 42811  86.4001 168.8139 0001951  83.8286 276.3132 14.34217904420717
IRIDIUM 121             
1 42812U 17039K   25189.55771919  .00000009  00000+0 -36988-5 0  9994
2 42812  86.4000 137.3259 0002065  86.6093 273.5339 14.34217591420579
IRIDIUM 133             
1 42955U 17061A   25189.49137323  .00000000  00000+0 -70738-5 0  9997
2 42955  86.4009 168.9098 0002171  84.6803 275.4641 14.34217824405515
IRIDIUM 100             
1 42956U 17061B   25189.48502683  .00000193  00000+0  61851-4 0  9999
2 42956  86.4000 168.8391 0002262  81.8284 278.3168 14.34217011405519
IRIDIUM 122             
1 42957U 17061C   25189.45331788  .00000071  00000+0  18301-4 0  9990
2 42957  86.4000 168.8516 0002341  85.8584 274.2879 14.34217759405517
IRIDIUM 129             
1 42958U 17061D   25189.47868936  .00000087  00000+0  23865-4 0  9991
2 42958  86.4002 168.9042 0002652  91.5761 268.5738 14.34218216405532
